{"type": "FeatureCollection", "features": [ {"type": "Feature", "properties": {"norad_id": 28659, "name": "DIRECTV 8", "group": "intelsat", "lat": -0.03784578326226369, "lon": -102.75065944981024, "alt_km": 35774.95650272801, "timestamp": "2025-12-22T18:58:53.088341+00:00", "meta": {"OBJECT_NAME": "DIRECTV 8", "OBJECT_ID": "2005-019A", "EPOCH": "2025-12-22T05:50:32.529984", "MEAN_MOTION": 1.00271407, "ECCENTRICITY": 0.00029112, "INCLINATION": 0.0186, "RA_OF_ASC_NODE": 22.9529, "ARG_OF_PERICENTER": 259.0005, "MEAN_ANOMALY": 137.6923, "EPHEMERIS_TYPE": 0, "CLASSIFICATION_TYPE": "U", "NORAD_CAT_ID": 28659, "ELEMENT_SET_NO": 999, "REV_AT_EPOCH": 7529, "BSTAR": 0, "MEAN_MOTION_DOT": 2.3e-07, "MEAN_MOTION_DDOT": 0}, "tle": {"line1": "1 28659U 05019A   25356.24343206  .00000023  00000+0  00000+0 0  9993", "line2": "2 28659   0.0186  22.9529 0002911 259.0005 137.6923  1.00271407 75296"}}, "geometry": {"type": "Point", "coordinates": [-102.75065944981024, -0.03784578326226369]}}, {"type": "Feature", "properties": {"norad_id": 28702, "name": "GALAXY 28 (G-28)", "group": "intelsat", "lat": -1.2922357176441734, "lon": -72.40382813245645, "alt_km": 35774.45049983512, "timestamp": "2025-12-22T18:58:53.088358+00:00", "meta": {"OBJECT_NAME": "GALAXY 28 (G-28)", "OBJECT_ID": "2005-022A", "EPOCH": "2025-12-20T00:49:30.482112", "MEAN_MOTION": 1.00271047, "ECCENTRICITY": 0.00029384, "INCLINATION": 2.8382, "RA_OF_ASC_NODE": 81.1982, "ARG_OF_PERICENTER": 194.0723, "MEAN_ANOMALY": 97.2981, "EPHEMERIS_TYPE": 0, "CLASSIFICATION_TYPE": "U", "NORAD_CAT_ID": 28702, "ELEMENT_SET_NO": 999, "REV_AT_EPOCH": 5017, "BSTAR": 0, "MEAN_MOTION_DOT": -1.65e-06, "MEAN_MOTION_DDOT": 0}, "tle": {"line1": "1 28702U 05022A   25354.03438058 -.00000165  00000+0  00000+0 0  9999", "line2": "2 28702   2.8382  81.1982 0002938 194.0723  97.2981  1.00271047 50172"}}, "geometry": {"type": "Point", "coordinates": [-72.40382813245645, -1.2922357176441734]}}, {"type": "Feature", "properties": {"norad_id": 29236, "name": "GALAXY 16 (G-16)", "group": "intelsat", "lat": 0.004235755126867873, "lon": -82.70359052888615, "alt_km": 35775.826427177504, "timestamp": "2025-12-22T18:58:53.088385+00:00", "meta": {"OBJECT_NAME": "GALAXY 16 (G-16)", "OBJECT_ID": "2006-023A", "EPOCH": "2025-12-22T06:12:07.828416", "MEAN_MOTION": 1.00270848, "ECCENTRICITY": 0.00024919, "INCLINATION": 0.0065, "RA_OF_ASC_NODE": 124.2422, "ARG_OF_PERICENTER": 149.1661, "MEAN_ANOMALY": 171.6816, "EPHEMERIS_TYPE": 0, "CLASSIFICATION_TYPE": "U", "NORAD_CAT_ID": 29236, "ELEMENT_SET_NO": 999, "REV_AT_EPOCH": 7119, "BSTAR": 0, "MEAN_MOTION_DOT": -1.05e-06, "MEAN_MOTION_DDOT": 0}, "tle": {"line1": "1 29236U 06023A   25356.25842394 -.00000105  00000+0  00000+0 0  9996", "line2": "2 29236   0.0065 124.2422 0002491 149.1661 171.6816  1.00270848 71194"}}, "geometry": {"type": "Point", "coordinates": [-82.70359052888615, 0.004235755126867873]}}, {"type": "Feature", "properties": {"norad_id": 29494, "name": "DIRECTV 9S", "group": "intelsat", "lat": -0.433103251567657, "lon": -84.906743405941, "alt_km": 35773.88632831954, "timestamp": "2025-12-22T18:58:53.088402+00:00", "meta": {"OBJECT_NAME": "DIRECTV 9S", "OBJECT_ID": "2006-043A", "EPOCH": "2025-12-22T06:15:17.447904", "MEAN_MOTION": 1.0027229, "ECCENTRICITY": 0.00028612, "INCLINATION": 1.9632, "RA_OF_ASC_NODE": 83.1122, "ARG_OF_PERICENTER": 192.9773, "MEAN_ANOMALY": 167.5933, "EPHEMERIS_TYPE": 0, "CLASSIFICATION_TYPE": "U", "NORAD_CAT_ID": 29494, "ELEMENT_SET_NO": 999, "REV_AT_EPOCH": 4961, "BSTAR": 0, "MEAN_MOTION_DOT": -9.3e-07, "MEAN_MOTION_DDOT": 0}, "tle": {"line1": "1 29494U 06043A   25356.26061861 -.00000093  00000+0  00000+0 0  9993", "line2": "2 29494   1.9632  83.1122 0002861 192.9773 167.5933  1.00272290 49610"}}, "geometry": {"type": "Point", "coordinates": [-84.906743405941, -0.433103251567657]}}, {"type": "Feature", "properties": {"norad_id": 31307, "name": "GALAXY 17 (G-17)", "group": "intelsat", "lat": -1.2551697012536573, "lon": -68.66082627148543, "alt_km": 35768.96641323838, "timestamp": "2025-12-22T18:58:53.088415+00:00", "meta": {"OBJECT_NAME": "GALAXY 17 (G-17)", "OBJECT_ID": "2007-016B", "EPOCH": "2025-12-22T06:09:12.365568", "MEAN_MOTION": 1.00269931, "ECCENTRICITY": 0.00053416, "INCLINATION": 2.5223, "RA_OF_ASC_NODE": 82.1781, "ARG_OF_PERICENTER": 171.0678, "MEAN_ANOMALY": 205.1399, "EPHEMERIS_TYPE": 0, "CLASSIFICATION_TYPE": "U", "NORAD_CAT_ID": 31307, "ELEMENT_SET_NO": 999, "REV_AT_EPOCH": 6803, "BSTAR": 0, "MEAN_MOTION_DOT": -1.86e-06, "MEAN_MOTION_DDOT": 0}, "tle": {"line1": "1 31307U 07016B   25356.25639312 -.00000186  00000+0  00000+0 0  9994", "line2": "2 31307   2.5223  82.1781 0005341 171.0678 205.1399  1.00269931 68037"}}, "geometry": {"type": "Point", "coordinates": [-68.66082627148543, -1.2551697012536573]}}, {"type": "Feature", "properties": {"norad_id": 31862, "name": "DIRECTV 10", "group": "intelsat", "lat": -0.008062908620960978, "lon": -86.48969926791814, "alt_km": 35785.579577124314, "timestamp": "2025-12-22T18:58:53.088427+00:00", "meta": {"OBJECT_NAME": "DIRECTV 10", "OBJECT_ID": "2007-032A", "EPOCH": "2025-12-21T16:08:00.885408", "MEAN_MOTION": 1.00272363, "ECCENTRICITY": 2.033e-05, "INCLINATION": 0.0084, "RA_OF_ASC_NODE": 101.8858, "ARG_OF_PERICENTER": 105.8192, "MEAN_ANOMALY": 21.9876, "EPHEMERIS_TYPE": 0, "CLASSIFICATION_TYPE": "U", "NORAD_CAT_ID": 31862, "ELEMENT_SET_NO": 999, "REV_AT_EPOCH": 4381, "BSTAR": 0, "MEAN_MOTION_DOT": -8.1e-07, "MEAN_MOTION_DDOT": 0}, "tle": {"line1": "1 31862U 07032A   25355.67223247 -.00000081  00000+0  00000+0 0  9993", "line2": "2 31862   0.0084 101.8858 0000203 105.8192  21.9876  1.00272363 43819"}}, "geometry": {"type": "Point", "coordinates": [-86.48969926791814, -0.008062908620960978]}}, {"type": "Feature", "properties": {"norad_id": 32253, "name": "INTELSAT 11 (IS-11)", "group": "intelsat", "lat": 2.767507099685128, "lon": -162.23589495204823, "alt_km": 36108.99635515837, "timestamp": "2025-12-22T18:58:53.088439+00:00", "meta": {"OBJECT_NAME": "INTELSAT 11 (IS-11)", "OBJECT_ID": "2007-044B", "EPOCH": "2025-12-22T05:28:52.272192", "MEAN_MOTION": 0.99052799, "ECCENTRICITY": 0.00085394, "INCLINATION": 3.1033, "RA_OF_ASC_NODE": 80.8719, "ARG_OF_PERICENTER": 169.7035, "MEAN_ANOMALY": 106.6462, "EPHEMERIS_TYPE": 0, "CLASSIFICATION_TYPE": "U", "NORAD_CAT_ID": 32253, "ELEMENT_SET_NO": 999, "REV_AT_EPOCH": 6669, "BSTAR": 0, "MEAN_MOTION_DOT": -1.12e-06, "MEAN_MOTION_DDOT": 0}, "tle": {"line1": "1 32253U 07044B   25356.22838278 -.00000112  00000+0  00000+0 0  9994", "line2": "2 32253   3.1033  80.8719 0008539 169.7035 106.6462  0.99052799 66698"}}, "geometry": {"type": "Point", "coordinates": [-162.23589495204823, 2.767507099685128]}}, {"type": "Feature", "properties": {"norad_id": 32388, "name": "HORIZONS-2", "group": "intelsat", "lat": -1.3937749484221598, "lon": -57.47642597274355, "alt_km": 35768.7185153434, "timestamp": "2025-12-22T18:58:53.088451+00:00", "meta": {"OBJECT_NAME": "HORIZONS-2", "OBJECT_ID": "2007-063B", "EPOCH": "2025-12-22T05:22:58.510848", "MEAN_MOTION": 1.00270969, "ECCENTRICITY": 0.00046331, "INCLINATION": 2.1448, "RA_OF_ASC_NODE": 82.859, "ARG_OF_PERICENTER": 194.9709, "MEAN_ANOMALY": 180.161, "EPHEMERIS_TYPE": 0, "CLASSIFICATION_TYPE": "U", "NORAD_CAT_ID": 32388, "ELEMENT_SET_NO": 999, "REV_AT_EPOCH": 6604, "BSTAR": 0, "MEAN_MOTION_DOT": -2.33e-06, "MEAN_MOTION_DDOT": 0}, "tle": {"line1": "1 32388U 07063B   25356.22428832 -.00000233  00000+0  00000+0 0  9999", "line2": "2 32388   2.1448  82.8590 0004633 194.9709 180.1610  1.00270969 66049"}}, "geometry": {"type": "Point", "coordinates": [-57.47642597274355, -1.3937749484221598]}}, {"type": "Feature", "properties": {"norad_id": 32729, "name": "DIRECTV 11", "group": "intelsat", "lat": -0.015460049952161287, "lon": -82.89592628004019, "alt_km": 35788.34391998483, "timestamp": "2025-12-22T18:58:53.088464+00:00", "meta": {"OBJECT_NAME": "DIRECTV 11", "OBJECT_ID": "2008-013A", "EPOCH": "2025-12-21T16:09:00.789984", "MEAN_MOTION": 1.00267418, "ECCENTRICITY": 8.567e-05, "INCLINATION": 0.0458, "RA_OF_ASC_NODE": 200.3144, "ARG_OF_PERICENTER": 330.5483, "MEAN_ANOMALY": 62.6867, "EPHEMERIS_TYPE": 0, "CLASSIFICATION_TYPE": "U", "NORAD_CAT_ID": 32729, "ELEMENT_SET_NO": 999, "REV_AT_EPOCH": 4381, "BSTAR": 0, "MEAN_MOTION_DOT": -1.03e-06, "MEAN_MOTION_DDOT": 0}, "tle": {"line1": "1 32729U 08013A   25355.67292581 -.00000103  00000+0  00000+0 0  9998", "line2": "2 32729   0.0458 200.3144 0000856 330.5483  62.6867  1.00267418 43811"}}, "geometry": {"type": "Point", "coordinates": [-82.89592628004019, -0.015460049952161287]}}, {"type": "Feature", "properties": {"norad_id": 32951, "name": "GALAXY 18 (G-18)", "group": "intelsat", "lat": -0.02386106554504273, "lon": -106.71753462522342, "alt_km": 35774.74131841222, "timestamp": "2025-12-22T18:58:53.088476+00:00", "meta": {"OBJECT_NAME": "GALAXY 18 (G-18)", "OBJECT_ID": "2008-024A", "EPOCH": "2025-12-22T05:43:58.324800", "MEAN_MOTION": 1.00271833, "ECCENTRICITY": 0.00028785, "INCLINATION": 0.0194, "RA_OF_ASC_NODE": 291.0763, "ARG_OF_PERICENTER": 344.3497, "MEAN_ANOMALY": 138.6035, "EPHEMERIS_TYPE": 0, "CLASSIFICATION_TYPE": "U", "NORAD_CAT_ID": 32951, "ELEMENT_SET_NO": 999, "REV_AT_EPOCH": 4407, "BSTAR": 0, "MEAN_MOTION_DOT": 4.7e-07, "MEAN_MOTION_DDOT": 0}, "tle": {"line1": "1 32951U 08024A   25356.23886950  .00000047  00000+0  00000+0 0  9995", "line2": "2 32951   0.0194 291.0763 0002878 344.3497 138.6035  1.00271833 44079"}}, "geometry": {"type": "Point", "coordinates": [-106.71753462522342, -0.02386106554504273]}}]}